NORAD_CAT_ID,OBJECT_NAME,OBJECT_TYPE,EPOCH,MEAN_MOTION,ECCENTRICITY,INCLINATION,RA_OF_ASC_NODE,ARG_OF_PERICENTER,MEAN_ANOMALY,BSTAR,MEAN_MOTION_DOT,MEAN_MOTION_DDOT,TLE_LINE0,TLE_LINE1,TLE_LINE2,SEMIMAJOR_AXIS,PERIOD,APOGEE,PERIGEE,DECAYED
56486.0,STARLINK-6201,PAYLOAD,2023-11-20 17:21:44,14.98332401,0.000299,70.0003,82.1808,268.9908,91.0908,3.0488e-05,2.71e-06,0.0,0 STARLINK-6201,1 56486U 23064AQ  23324.72342768  .00000271  00000-0  30488-4 0  9994,2 56486  70.0003  82.1808 0002990 268.9908  91.0908 14.98332401 30285,6950.185,96.107,574.129,569.972,0.0
56486.0,STARLINK-6201,PAYLOAD,2023-11-20 20:33:59,14.98336165,0.000305,70.0002,81.8441,269.9576,90.1233,5.951e-05,6.17e-06,0.0,0 STARLINK-6201,1 56486U 23064AQ  23324.85694401  .00000617  00000-0  59510-4 0  9993,2 56486  70.0002  81.8441 0003050 269.9576  90.1233 14.98336165 29946,6950.174,96.107,574.159,569.919,0.0
56486.0,STARLINK-6201,PAYLOAD,2023-11-21 01:22:25,14.98324437,0.0003205,70.0002,81.339,268.4997,91.5795,-7.69e-05,-1.01e-05,0.0,0 STARLINK-6201,1 56486U 23064AQ  23325.05723423 -.00001010  00000-0 -76900-4 0  9995,2 56486  70.0002  81.3390 0003205 268.4997  91.5795 14.98324437 30339,6950.21,96.107,574.303,569.848,0.0
56486.0,STARLINK-6201,PAYLOAD,2023-11-21 12:35:21,14.98326995,0.0003187,70.0003,80.1611,268.1986,91.8808,-3.4562e-05,-5.05e-06,0.0,0 STARLINK-6201,1 56486U 23064AQ  23325.52455219 -.00000505  00000-0 -34562-4 0  9998,2 56486  70.0003  80.1611 0003187 268.1986  91.8808 14.98326995 30044,6950.202,96.107,574.282,569.852,0.0
56486.0,STARLINK-6201,PAYLOAD,2023-11-21 17:23:44,14.98333826,0.0002916,70.0005,79.6553,266.5962,93.4863,2.6585e-05,2.24e-06,0.0,0 STARLINK-6201,1 56486U 23064AQ  23325.72482605  .00000224  00000-0  26585-4 0  9991,2 56486  70.0005  79.6553 0002916 266.5962  93.4863 14.98333826 30072,6950.181,96.107,574.073,570.019,0.0
56486.0,STARLINK-6201,PAYLOAD,2023-11-22 14:13:29,14.98336719,0.0002762,70.0007,77.4672,263.8456,96.2388,8.2683e-05,8.94e-06,0.0,0 STARLINK-6201,1 56486U 23064AQ  23326.59269996  .00000894  00000-0  82683-4 0  9997,2 56486  70.0007  77.4672 0002762 263.8456  96.2388 14.98336719 30201,6950.172,96.107,573.957,570.117,0.0
56486.0,STARLINK-6201,PAYLOAD,2023-11-22 17:25:44,14.98341995,0.0002845,70.0013,77.1324,260.0785,100.0053,0.00010398,1.148e-05,0.0,0 STARLINK-6201,1 56486U 23064AQ  23326.72621461  .00001148  00000-0  10398-3 0  9997,2 56486  70.0013  77.1324 0002845 260.0785 100.0053 14.98341995 30581,6950.156,96.106,573.998,570.043,0.0
56486.0,STARLINK-6201,PAYLOAD,2023-11-23 11:03:15,14.98320365,0.0003071,70.0008,75.2792,270.9172,89.1635,-0.00010315,-1.323e-05,0.0,0 STARLINK-6201,1 56486U 23064AQ  23327.46059512 -.00001323  00000-0 -10315-3 0  9997,2 56486  70.0008  75.2792 0003071 270.9172  89.1635 14.98320365 30698,6950.223,96.108,574.222,569.953,0.0
56486.0,STARLINK-6201,PAYLOAD,2023-11-23 14:15:31,14.98318117,0.0002625,70.0019,74.9441,249.4954,110.5923,-0.00012885,-1.629e-05,0.0,0 STARLINK-6201,1 56486U 23064AQ  23327.59411720 -.00001629  00000-0 -12885-3 0  9997,2 56486  70.0019  74.9441 0002625 249.4954 110.5923 14.98318117 30354,6950.23,96.108,573.919,570.27,0.0
56486.0,STARLINK-6201,PAYLOAD,2023-11-23 17:27:47,14.98318845,0.0002639,70.0019,74.6084,253.2932,106.7937,-7.1976e-05,-9.51e-06,0.0,0 STARLINK-6201,1 56486U 23064AQ  23327.72763684 -.00000951  00000-0 -71976-4 0  9995,2 56486  70.0019  74.6084 0002639 253.2932 106.7937 14.98318845 30370,6950.227,96.108,573.927,570.258,0.0
56486.0,STARLINK-6201,PAYLOAD,2023-11-24 11:05:16,14.98327375,0.0002968,70.0011,72.7548,276.9998,83.0823,-7.3876e-05,-9.74e-06,0.0,0 STARLINK-6201,1 56486U 23064AQ  23328.46199314 -.00000974  00000-0 -73876-4 0  9996,2 56486  70.0011  72.7548 0002968 276.9998  83.0823 14.98327375 30846,6950.201,96.107,574.129,570.003,0.0
56486.0,STARLINK-6201,PAYLOAD,2023-11-24 14:17:32,14.98328963,0.0002457,70.0021,72.4202,252.4583,107.6307,-5.0563e-05,-6.96e-06,0.0,0 STARLINK-6201,1 56486U 23064AQ  23328.59551093 -.00000696  00000-0 -50563-4 0  9995,2 56486  70.0021  72.4202 0002457 252.4583 107.6307 14.98328963 30500,6950.196,96.107,573.769,570.353,0.0
56486.0,STARLINK-6201,PAYLOAD,2023-11-24 17:29:48,14.98329926,0.0002359,70.002,72.0835,256.1577,103.932,-1.598e-05,-2.84e-06,0.0,0 STARLINK-6201,1 56486U 23064AQ  23328.72902984 -.00000284  00000-0 -15980-4 0  9996,2 56486  70.0020  72.0835 0002359 256.1577 103.9320 14.98329926 30528,6950.193,96.107,573.698,570.419,0.0
56486.0,STARLINK-6201,PAYLOAD,2023-11-25 14:19:31,14.98354202,0.0002511,70.0027,69.8965,247.7844,112.3049,0.00016827,1.917e-05,0.0,0 STARLINK-6201,1 56486U 23064AQ  23329.59688979  .00001917  00000-0  16827-3 0  9999,2 56486  70.0027  69.8965 0002511 247.7844 112.3049 14.98354202 30657,6950.118,96.105,573.728,570.238,0.0
56486.0,STARLINK-6201,PAYLOAD,2023-11-25 15:55:43,14.98290729,0.0002592,70.0025,69.7271,268.7733,91.3129,-0.00024098,-2.964e-05,0.0,0 STARLINK-6201,1 56486U 23064AQ  23329.66369839 -.00002964  00000-0 -24098-3 0  9992,2 56486  70.0025  69.7271 0002592 268.7733  91.3129 14.98290729 30662,6950.314,96.11,573.981,570.378,0.0
56486.0,STARLINK-6201,PAYLOAD,2023-11-26 11:09:17,14.98317978,0.0002561,70.0025,67.708,256.834,103.2533,-0.00014227,-1.789e-05,0.0,0 STARLINK-6201,1 56486U 23064AQ  23330.46479063 -.00001789  00000-0 -14227-3 0  9990,2 56486  70.0025  67.7080 0002561 256.8340 103.2533 14.98317978 31148,6950.23,96.108,573.875,570.315,0.0
56486.0,STARLINK-6201,PAYLOAD,2023-11-26 14:21:35,14.98294076,0.0002495,70.0034,67.372,235.4454,124.647,-0.0002827,-3.461e-05,0.0,0 STARLINK-6201,1 56486U 23064AQ  23330.59833021 -.00003461  00000-0 -28270-3 0  9994,2 56486  70.0034  67.3720 0002495 235.4454 124.6470 14.98294076 30802,6950.304,96.109,573.903,570.435,0.0
56486.0,STARLINK-6201,PAYLOAD,2023-11-26 15:57:46,14.98266181,0.0001946,70.003,67.203,277.3983,82.6954,-0.00067435,-8.116e-05,0.0,0 STARLINK-6201,1 56486U 23064AQ  23330.66511984 -.00008116  00000-0 -67435-3 0  9991,2 56486  70.0030  67.2030 0001946 277.3983  82.6954 14.98266181 31170,6950.39,96.111,573.608,570.903,0.0
56486.0,STARLINK-6201,PAYLOAD,2023-11-26 22:22:15,14.98309585,0.0002536,70.003,66.5288,301.8269,58.2643,-0.00019415,-2.407e-05,0.0,0 STARLINK-6201,1 56486U 23064AQ  23330.93212575 -.00002407  00000-0 -19415-3 0  9997,2 56486  70.0030  66.5288 0002536 301.8269  58.2643 14.98309585 30857,6950.256,96.108,573.884,570.358,0.0
56486.0,STARLINK-6201,PAYLOAD,2023-11-27 11:11:19,14.98318199,0.0002484,70.0025,65.1826,251.2516,108.8373,-0.00015482,-1.939e-05,0.0,0 STARLINK-6201,1 56486U 23064AQ  23331.46619775 -.00001939  00000-0 -15482-3 0  9998,2 56486  70.0025  65.1826 0002484 251.2516 108.8373 14.98318199 31291,6950.229,96.108,573.821,570.368,0.0
56486.0,STARLINK-6201,PAYLOAD,2023-11-27 14:23:34,14.98333712,0.0002424,70.0033,64.8469,283.3791,76.7098,2.6486e-05,2.23e-06,0.0,0 STARLINK-6201,1 56486U 23064AQ  23331.59970772  .00000223  00000-0  26486-4 0  9999,2 56486  70.0033  64.8469 0002424 283.3791  76.7098 14.98333712 30951,6950.181,96.107,573.731,570.362,0.0
56486.0,STARLINK-6201,PAYLOAD,2023-11-27 15:59:43,14.98317922,0.0002699,70.003,64.6783,274.1851,85.9,-0.00013702,-1.727e-05,0.0,0 STARLINK-6201,1 56486U 23064AQ  23331.66647949 -.00001727  00000-0 -13702-3 0  9992,2 56486  70.0030  64.6783 0002699 274.1851  85.9000 14.98317922 30965,6950.23,96.108,573.971,570.219,0.0
56486.0,STARLINK-6201,PAYLOAD,2023-11-28 11:13:17,14.98378261,0.0002528,70.0052,62.6619,216.3706,143.7282,-0.00036663,-4.47e-05,0.0,0 STARLINK-6201,1 56486U 23064AQ  23332.46756542 -.00004470  00000-0 -36663-3 0  9990,2 56486  70.0052  62.6619 0002528 216.3706 143.7282 14.98378261 31445,6950.044,96.104,573.666,570.152,0.0
56486.0,STARLINK-6201,PAYLOAD,2023-11-28 14:25:36,14.98328867,0.0002455,70.004,62.3233,253.1136,106.9753,-0.00076888,-9.254e-05,0.0,0 STARLINK-6201,1 56486U 23064AQ  23332.60112237 -.00009254  00000-0 -76888-3 0  9991,2 56486  70.0040  62.3233 0002455 253.1136 106.9753 14.98328867 31100,6950.196,96.107,573.768,570.355,0.0
56486.0,STARLINK-6201,PAYLOAD,2023-11-28 16:01:42,14.98358947,0.0002406,70.0037,62.1538,279.7244,80.3644,-0.00031677,-3.873e-05,0.0,0 STARLINK-6201,1 56486U 23064AQ  23332.66785443 -.00003873  00000-0 -31677-3 0  9990,2 56486  70.0037  62.1538 0002406 279.7244  80.3644 14.98358947 31478,6950.103,96.105,573.641,570.296,0.0
56486.0,STARLINK-6201,PAYLOAD,2023-11-29 11:15:20,14.98324486,0.0002913,70.0028,60.136,258.361,101.7222,0.00012193,1.362e-05,0.0,0 STARLINK-6201,1 56486U 23064AQ  23333.46898635  .00001362  00000-0  12193-3 0  9998,2 56486  70.0028  60.1360 0002913 258.3610 101.7222 14.98324486 31596,6950.21,96.107,574.1,570.05,0.0
56486.0,STARLINK-6201,PAYLOAD,2023-11-29 14:27:36,14.98324704,0.0002966,70.0022,59.798,263.1304,96.9517,0.00012445,1.392e-05,0.0,0 STARLINK-6201,1 56486U 23064AQ  23333.60250672  .00001392  00000-0  12445-3 0  9990,2 56486  70.0022  59.7980 0002966 263.1304  96.9517 14.98324704 31252,6950.209,96.107,574.136,570.013,0.0
56486.0,STARLINK-6201,PAYLOAD,2023-11-30 11:17:21,14.98330692,0.0003105,70.0014,57.6067,270.8847,89.1957,-8.9809e-05,-1.164e-05,0.0,0 STARLINK-6201,1 56486U 23064AQ  23334.47038893 -.00001164  00000-0 -89809-4 0  9993,2 56486  70.0014  57.6067 0003105 270.8847  89.1957 14.98330692 31748,6950.191,96.107,574.214,569.898,0.0
56486.0,STARLINK-6201,PAYLOAD,2023-12-01 14:31:38,14.98330367,0.0002784,70.0023,54.7483,251.6227,108.4629,3.9123e-05,3.74e-06,0.0,0 STARLINK-6201,1 56486U 23064AQ  23335.60530510  .00000374  00000-0  39123-4 0  9996,2 56486  70.0023  54.7483 0002784 251.6227 108.4629 14.98330367 31918,6950.192,96.107,573.992,570.122,0.0
56486.0,STARLINK-6201,PAYLOAD,2023-12-02 11:21:21,14.9834689,0.0002598,70.0025,52.5583,249.194,110.8941,0.00021698,2.498e-05,0.0,0 STARLINK-6201,1 56486U 23064AQ  23336.47316312  .00002498  00000-0  21698-3 0  9990,2 56486  70.0025  52.5583 0002598 249.1940 110.8941 14.98346890 32041,6950.141,96.106,573.811,570.2,0.0
